     2.100          NAVIGATION                              RINEX VERSION / TYPE
fic2rin                                 09/27/2013 00:21:50 PGM / RUN BY / DATE
                                                            END OF HEADER
31 13  9 26 14  0  0.0  .326683744788D-03  .795807864051D-12  .000000000000D+00
     .610000000000D+02  .212812500000D+02  .419767485001D-08 -.846284029732D+00
     .862404704094D-06  .795302621555D-02  .512227416039D-05  .515367704010D+04
     .396000000000D+06 -.745058059692D-07 -.429348820787D+00 -.707805156708D-07
     .980010768445D+00  .291250000000D+03 -.734596088979D+00 -.811355224773D-08
     .135719938995D-09  .100000000000D+01  .175900000000D+04  .000000000000D+00
     .240000000000D+01  .000000000000D+00 -.130385160446D-07  .610000000000D+02
     .388806000000D+06  .400000000000D+01
32 13  9 26 14  0  0.0 -.545727089047D-03  .306954461848D-11  .000000000000D+00
     .370000000000D+02  .142500000000D+02  .484270171796D-08 -.386771991566D+00
     .637024641037D-06  .116046090843D-01  .827386975288D-05  .515358527374D+04
     .396000000000D+06  .182539224625D-06 -.246484609473D+01 -.176951289177D-06
     .948889968779D+00  .215937500000D+03 -.287384443036D+00 -.822891419588D-08
    -.239295681911D-09  .100000000000D+01  .175900000000D+04  .000000000000D+00
     .240000000000D+01  .000000000000D+00 -.279396772385D-08  .370000000000D+02
     .388806000000D+06  .400000000000D+01
22 13  9 26 13 59 44.0  .186706893146D-03  .204636307899D-11  .000000000000D+00
     .210000000000D+02  .884375000000D+01  .525771900510D-08  .286956840127D+01
     .417232513428D-06  .677490921225D-02  .796653330326D-05  .515364718437D+04
     .395984000000D+06  .223517417908D-07 -.255138721687D+01 -.540167093277D-07
     .924760499964D+00  .205562500000D+03 -.203624063968D+01 -.824820071352D-08
    -.200365488884D-09  .100000000000D+01  .175900000000D+04  .000000000000D+00
     .240000000000D+01  .000000000000D+00 -.172294676304D-07  .210000000000D+02
     .391206000000D+06  .400000000000D+01
22 13  9 26 15 59 44.0  .186721328646D-03  .204636307899D-11  .000000000000D+00
     .220000000000D+02  .690625000000D+01  .530557814148D-08 -.236344539976D+01
     .340864062309D-06  .677563890349D-02  .779703259468D-05  .515364576340D+04
     .403184000000D+06  .353902578354D-07 -.255144650894D+01 -.894069671631D-07
     .924759023880D+00  .210687500000D+03 -.203620921912D+01 -.825177229087D-08
    -.221794952936D-09  .100000000000D+01  .175900000000D+04  .000000000000D+00
     .240000000000D+01  .000000000000D+00 -.172294676304D-07  .220000000000D+02
     .396006000000D+06  .400000000000D+01
 1 13  9 26 16  0  0.0  .788778997958D-04  .397903932026D-11  .000000000000D+00
     .810000000000D+02 -.303125000000D+01  .480770026001D-08  .711391474047D+00
    -.502914190292D-07  .237665127497D-02  .696443021297D-05  .515368623161D+04
     .403200000000D+06  .372529029846D-07  .268810425083D+01  .745058059692D-08
     .960648406908D+00  .241343750000D+03  .385463408418D+00 -.815926843771D-08
    -.160720980388D-10  .100000000000D+01  .175900000000D+04  .000000000000D+00
     .240000000000D+01  .000000000000D+00  .838190317154D-08  .810000000000D+02
     .396006000000D+06  .400000000000D+01
 2 13  9 26 16  0  0.0  .453137792647D-03  .181898940355D-11  .000000000000D+00
     .940000000000D+02 -.893750000000D+01  .527950562689D-08  .153667453355D+01
    -.378116965294D-06  .126055071596D-01  .755116343498D-05  .515372864151D+04
     .403200000000D+06 -.169500708580D-06  .266380867352D+01  .193715095520D-06
     .939144188474D+00  .226250000000D+03 -.255598568626D+01 -.845428072616D-08
    -.560737642688D-10  .100000000000D+01  .175900000000D+04  .000000000000D+00
     .240000000000D+01  .000000000000D+00 -.172294676304D-07  .940000000000D+02
     .396006000000D+06  .400000000000D+01
 3 13  9 26 16  0  0.0  .264672562480D-03  .511590769747D-11  .000000000000D+00
     .120000000000D+02 -.455625000000D+02  .513414242907D-08  .169591342834D+01
    -.263936817646D-05  .167290106183D-01  .794231891632D-05  .515373068619D+04
     .403200000000D+06 -.949949026108D-07  .149207338998D+01 -.441446900368D-06
     .935423853210D+00  .215312500000D+03  .133666819490D+01 -.827605901679D-08
     .196436753808D-09  .100000000000D+01  .175900000000D+04  .000000000000D+00
     .240000000000D+01  .000000000000D+00 -.465661287308D-08  .120000000000D+02
     .396006000000D+06  .400000000000D+01
 4 13  9 26 16  0  0.0  .123679637909D-05  .454747350886D-12  .000000000000D+00
     .560000000000D+02 -.412500000000D+01  .521343144606D-08 -.147625805619D+01
    -.949949026108D-07  .105880199699D-01  .686757266521D-05  .515360469627D+04
     .403200000000D+06  .247731804848D-06  .268011418874D+01  .875443220139D-07
     .938188941004D+00  .232500000000D+03  .102653437656D+01 -.825820113008D-08
     .582167106740D-10  .100000000000D+01  .175900000000D+04  .000000000000D+00
     .240000000000D+01  .000000000000D+00 -.605359673500D-08  .560000000000D+02
     .396006000000D+06  .400000000000D+01
 5 13  9 26 16  0  0.0 -.399472191930D-03  .227373675443D-12  .000000000000D+00
     .830000000000D+02  .110312500000D+02  .485055918812D-08 -.247686174019D+01
     .551342964172D-06  .328522140626D-02  .835768878460D-05  .515370834541D+04
     .403200000000D+06  .149011611938D-07 -.255375488395D+01 -.167638063431D-07
     .948417869023D+00  .213218750000D+03  .278829952032D+00 -.810390898891D-08
    -.246081678861D-09  .100000000000D+01  .175900000000D+04  .000000000000D+00
     .240000000000D+01  .000000000000D+00 -.977888703346D-08  .830000000000D+02
     .396006000000D+06  .400000000000D+01
 6 13  9 26 16  0  0.0  .731027685106D-04  .187583282241D-10  .000000000000D+00
     .640000000000D+02 -.339062500000D+02  .493449125565D-08 -.276806168424D+01
    -.167079269886D-05  .812823337037D-02  .811740756035D-05  .515368416786D+04
     .403200000000D+06 -.137835741043D-06  .157249643071D+01  .372529029846D-07
     .941977269774D+00  .214062500000D+03 -.222361712086D+00 -.810355183117D-08
     .190365072327D-09  .100000000000D+01  .175900000000D+04  .000000000000D+00
     .240000000000D+01  .000000000000D+00 -.512227416039D-08  .640000000000D+02
     .396006000000D+06  .400000000000D+01
 7 13  9 26 16  0  0.0  .262925401330D-03  .420641299570D-11  .000000000000D+00
     .103000000000D+03  .218437500000D+02  .429232164957D-08  .145002873232D+00
     .121444463730D-05  .696158409119D-02  .465847551823D-05  .515366693306D+04
     .403200000000D+06  .143423676491D-06 -.434467486298D+00  .447034835815D-07
     .975032933670D+00  .296906250000D+03 -.287263237201D+01 -.818712674098D-08
     .950039572962D-10  .100000000000D+01  .175900000000D+04  .000000000000D+00
     .240000000000D+01  .000000000000D+00 -.107102096081D-07  .103000000000D+03
     .396006000000D+06  .400000000000D+01
 8 13  9 26 16  0  0.0  .870274379849D-05  .227373675443D-12  .000000000000D+00
     .840000000000D+02  .155625000000D+02  .381837333629D-08 -.424365653676D+00
     .968575477600D-06  .134636880830D-01  .459700822830D-05  .515368848038D+04
     .403200000000D+06  .193715095520D-06 -.340529524124D+00  .726431608200D-07
     .997996999518D+00  .307781250000D+03 -.283102537408D+01 -.804962101331D-08
     .935753263594D-10  .100000000000D+01  .175900000000D+04  .000000000000D+00
     .240000000000D+01  .000000000000D+00 -.372529029846D-08  .840000000000D+02
     .396006000000D+06  .400000000000D+01
 9 13  9 26 16  0  0.0  .271251425147D-03  .272848410532D-11  .000000000000D+00
     .880000000000D+02  .218437500000D+02  .406266922648D-08  .132233759130D+01
     .815838575363D-06  .168592879781D-01  .476650893688D-05  .515371769142D+04
     .403200000000D+06  .130385160446D-07 -.456786585212D+00 -.448897480965D-06
     .983617111669D+00  .298875000000D+03  .172957134782D+01 -.809105131048D-08
     .111433213069D-09  .100000000000D+01  .175900000000D+04  .000000000000D+00
     .340000000000D+01  .000000000000D+00 -.558793544769D-08  .880000000000D+02
     .396006000000D+06  .400000000000D+01
10 13  9 26 16  0  0.0 -.959062017500D-04 -.136424205266D-11  .000000000000D+00
     .470000000000D+02  .918750000000D+01  .486127392014D-08 -.223988880756D+01
     .415369868279D-06  .128255318850D-01  .810623168945D-05  .515366054344D+04
     .403200000000D+06  .128522515297D-06 -.253505077995D+01 -.931322574615D-07
     .943225080379D+00  .212812500000D+03  .818572797643D+00 -.797747515100D-08
    -.153934983439D-09  .100000000000D+01  .175900000000D+04  .000000000000D+00
     .240000000000D+01  .000000000000D+00 -.232830643654D-08  .470000000000D+02
     .396006000000D+06  .400000000000D+01
12 13  9 26 16  0  0.0  .158608425409D-03  .216004991671D-11  .000000000000D+00
     .350000000000D+02 -.526875000000D+02  .411731435981D-08 -.165542898452D+00
    -.263378024101D-05  .452753400896D-02  .624358654022D-05  .515376075172D+04
     .403200000000D+06  .838190317154D-07  .625082797893D+00  .447034835815D-07
     .985432979216D+00  .275750000000D+03  .334333322896D+00 -.800497629654D-08
     .296440919383D-10  .100000000000D+01  .175900000000D+04  .000000000000D+00
     .240000000000D+01  .000000000000D+00 -.116415321827D-07  .350000000000D+02
     .396006000000D+06  .400000000000D+01
13 13  9 26 16  0  0.0  .760713592172D-04 -.375166564481D-11  .000000000000D+00
     .500000000000D+02  .618437500000D+02  .393409244217D-08  .247728266561D+01
     .331550836563D-05  .503342261072D-02  .750459730625D-05  .515369854546D+04
     .403200000000D+06 -.130385160446D-07 -.140077608418D+01  .484287738800D-07
     .979904086607D+00  .245000000000D+03  .220309565569D+01 -.768674875537D-08
    -.771460705864D-10  .100000000000D+01  .175900000000D+04  .000000000000D+00
     .240000000000D+01  .000000000000D+00 -.107102096081D-07  .500000000000D+02
     .396006000000D+06  .400000000000D+01
